IRIDIUM 171             
1 43929U 19002H   25276.48294915  .00000014  00000+0 -22412-5 0  9994
2 43929  86.3923 101.1822 0001919  79.7956 280.3456 14.34217716352169
IRIDIUM 170             
1 43930U 19002J   25276.51910752  .00000602  00000+0  91536-4 0  9998
2 43930  86.6036 100.8970 0002348  87.6670 272.4816 14.72251423361490
IRIDIUM 167             
1 43931U 19002K   25276.61614452 -.00000039  00000+0 -20863-4 0  9999
2 43931  86.3917 100.8686 0002133  77.0625 283.0809 14.34217252352181
IRIDIUM 181             
1 56726U 23068S   25276.65707661  .00000925  00000+0  26903-3 0  9993
2 56726  86.4564 163.9842 0001716  73.9759 286.1631 14.43294054125437
IRIDIUM 177             
1 56727U 23068T   25276.50407762  .00001727  00000+0  22390-3 0  9994
2 56727  86.1909  90.6945 0002214  85.3817 274.7657 14.80221802128395
IRIDIUM 174             
1 56728U 23068U   25276.50672877  .00000963  00000+0  14889-3 0  9991
2 56728  86.6041 101.0233 0002717  99.8251 260.3273 14.72237677128253
IRIDIUM 178             
1 56729U 23068V   25276.35796004  .00003178  00000+0  41467-3 0  9997
2 56729  86.6541 132.7129 0002575  80.1670 279.9843 14.80245559128373
IRIDIUM 179             
1 56730U 23068W   25276.62300021  .00003002  00000+0  39154-3 0  9995
2 56730  86.6800 140.8066 0002576  71.3944 288.7557 14.80244935128412
